[{"OBJECT_NAME":"HBTSS-SV1","OBJECT_ID":"2024-028F","EPOCH":"2026-03-09T23:05:25.846944","MEAN_MOTION":14.81553365,"ECCENTRICITY":0.00119303,"INCLINATION":39.9894,"RA_OF_ASC_NODE":316.1636,"ARG_OF_PERICENTER":238.589,"MEAN_ANOMALY":121.3729,"EPHEMERIS_TYPE":0,"CLASSIFICATION_TYPE":"U","NORAD_CAT_ID":58960,"ELEMENT_SET_NO":999,"REV_AT_EPOCH":9236,"BSTAR":0.00047571396,"MEAN_MOTION_DOT":3.673e-5,"MEAN_MOTION_DDOT":0},{"OBJECT_NAME":"GEESAT-6 03","OBJECT_ID":"2025-214D","EPOCH":"2026-03-09T23:28:29.768448","MEAN_MOTION":14.82978597,"ECCENTRICITY":0.00131304,"INCLINATION":49.9819,"RA_OF_ASC_NODE":47.6409,"ARG_OF_PERICENTER":203.4469,"MEAN_ANOMALY":156.5871,"EPHEMERIS_TYPE":0,"CLASSIFICATION_TYPE":"U","NORAD_CAT_ID":65715,"ELEMENT_SET_NO":999,"REV_AT_EPOCH":2478,"BSTAR":0.00038533063,"MEAN_MOTION_DOT":2.941e-5,"MEAN_MOTION_DDOT":0}]
